{
  "norad_id": 66945,
  "name": "STARLINK-36110",
  "history": [
    {
      "epoch": "2026-03-28T21:39:41.262624Z",
      "apogee_km": 475.8685145108111,
      "perigee_km": 474.54102221027915,
      "latitude_deg": 2.694681803399153e-05,
      "longitude_deg": 118.30025192319927,
      "height_km": 476.117203286159,
      "semi_major_axis_km": 6853.341768360545,
      "eccentricity": 9.685e-05,
      "inclination_deg": 53.1587,
      "raan_deg": 269.5385,
      "arg_perigee_deg": 91.2168,
      "mean_anomaly_deg": 268.8944,
      "mean_motion_rev_day": 15.3020345
    },
    {
      "epoch": "2026-03-28T23:13:44.477760Z",
      "apogee_km": 475.83786400565623,
      "perigee_km": 474.5398440889003,
      "latitude_deg": -5.72362084979117e-05,
      "longitude_deg": 94.41951538311167,
      "height_km": 476.02510642422214,
      "semi_major_axis_km": 6853.325854047278,
      "eccentricity": 9.47e-05,
      "inclination_deg": 53.1587,
      "raan_deg": 269.2356,
      "arg_perigee_deg": 84.506,
      "mean_anomaly_deg": 275.6048,
      "mean_motion_rev_day": 15.3020878
    },
    {
      "epoch": "2026-03-29T22:44:32.254656Z",
      "apogee_km": 475.8847785492226,
      "perigee_km": 474.5004059715866,
      "latitude_deg": -5.339287523292324e-05,
      "longitude_deg": 96.20329257427476,
      "height_km": 476.01156803271965,
      "semi_major_axis_km": 6853.329592260405,
      "eccentricity": 0.000101,
      "inclination_deg": 53.1589,
      "raan_deg": 264.6841,
      "arg_perigee_deg": 83.417,
      "mean_anomaly_deg": 276.6945,
      "mean_motion_rev_day": 15.30207528
    },
    {
      "epoch": "2026-03-30T06:34:48.195552Z",
      "apogee_km": 475.88449682594364,
      "perigee_km": 474.4490038224003,
      "latitude_deg": 3.3803881751807346e-05,
      "longitude_deg": -23.202647935762943,
      "height_km": 476.1013557304464,
      "semi_major_axis_km": 6853.303750324171,
      "eccentricity": 0.00010473,
      "inclination_deg": 53.1589,
      "raan_deg": 263.1664,
      "arg_perigee_deg": 92.9025,
      "mean_anomaly_deg": 267.2096,
      "mean_motion_rev_day": 15.30216183
    },
    {
      "epoch": "2026-03-30T14:25:04.187424Z",
      "apogee_km": 475.59775650358006,
      "perigee_km": 474.71765639737896,
      "latitude_deg": 1.1456245711565484e-05,
      "longitude_deg": -142.60758301183026,
      "height_km": 476.10509266481426,
      "semi_major_axis_km": 6853.29470645048,
      "eccentricity": 6.421e-05,
      "inclination_deg": 53.159,
      "raan_deg": 261.65,
      "arg_perigee_deg": 96.3375,
      "mean_anomaly_deg": 263.7699,
      "mean_motion_rev_day": 15.30219212
    },
    {
      "epoch": "2026-03-30T22:15:20.567232Z",
      "apogee_km": 476.1008491835337,
      "perigee_km": 474.36393124527785,
      "latitude_deg": -5.6268951967585657e-05,
      "longitude_deg": 97.98552727691178,
      "height_km": 476.17882666994893,
      "semi_major_axis_km": 6853.369390214406,
      "eccentricity": 0.00012672,
      "inclination_deg": 53.1588,
      "raan_deg": 260.1333,
      "arg_perigee_deg": 93.2,
      "mean_anomaly_deg": 266.9145,
      "mean_motion_rev_day": 15.30194199
    },
    {
      "epoch": "2026-03-31T10:47:45.927168Z",
      "apogee_km": 475.89917938138296,
      "perigee_km": 474.39680224569656,
      "latitude_deg": 4.1045900908087605e-06,
      "longitude_deg": -93.06260843914285,
      "height_km": 476.1050272343437,
      "semi_major_axis_km": 6853.2849908135395,
      "eccentricity": 0.00010961,
      "inclination_deg": 53.1589,
      "raan_deg": 257.7058,
      "arg_perigee_deg": 94.4919,
      "mean_anomaly_deg": 265.6207,
      "mean_motion_rev_day": 15.30222466
    },
    {
      "epoch": "2026-04-01T04:02:22.419456Z",
      "apogee_km": 476.0317542167704,
      "perigee_km": 474.54483506484576,
      "latitude_deg": 1.448986649776354e-07,
      "longitude_deg": 4.24027423783705,
      "height_km": 476.17953902974716,
      "semi_major_axis_km": 6853.425294640808,
      "eccentricity": 0.00010848,
      "inclination_deg": 53.159,
      "raan_deg": 254.3689,
      "arg_perigee_deg": 89.4632,
      "mean_anomaly_deg": 270.6493,
      "mean_motion_rev_day": 15.30175476
    },
    {
      "epoch": "2026-04-02T19:13:41.130336Z",
      "apogee_km": 476.21473308560235,
      "perigee_km": 474.09912125028586,
      "latitude_deg": -1.1165823903739095e-05,
      "longitude_deg": 127.21668962342875,
      "height_km": 475.98135103365286,
      "semi_major_axis_km": 6853.293927167943,
      "eccentricity": 0.00015435,
      "inclination_deg": 53.1585,
      "raan_deg": 246.7827,
      "arg_perigee_deg": 86.036,
      "mean_anomaly_deg": 274.0817,
      "mean_motion_rev_day": 15.30219473
    },
    {
      "epoch": "2026-04-03T18:44:29.353920Z",
      "apogee_km": 476.1006620300668,
      "perigee_km": 474.6436059881771,
      "latitude_deg": 1.5549674646943083e-06,
      "longitude_deg": 129.00250674416432,
      "height_km": 476.1572789931142,
      "semi_major_axis_km": 6853.509134009122,
      "eccentricity": 0.0001063,
      "inclination_deg": 53.1582,
      "raan_deg": 242.2351,
      "arg_perigee_deg": 81.0757,
      "mean_anomaly_deg": 279.0364,
      "mean_motion_rev_day": 15.30147398
    },
    {
      "epoch": "2026-04-04T15:07:11.321760Z",
      "apogee_km": 475.91565015786273,
      "perigee_km": 474.4517808530318,
      "latitude_deg": -5.114916267930126e-06,
      "longitude_deg": 178.54442711440305,
      "height_km": 475.9885779813061,
      "semi_major_axis_km": 6853.320715505447,
      "eccentricity": 0.0001068,
      "inclination_deg": 53.1583,
      "raan_deg": 238.2888,
      "arg_perigee_deg": 82.6748,
      "mean_anomaly_deg": 277.4374,
      "mean_motion_rev_day": 15.30210501
    },
    {
      "epoch": "2026-04-05T14:37:58.729728Z",
      "apogee_km": 475.6165333914041,
      "perigee_km": 474.7489031150726,
      "latitude_deg": 3.0201610109491548e-05,
      "longitude_deg": -179.6693327479666,
      "height_km": 475.9667918093229,
      "semi_major_axis_km": 6853.319718253238,
      "eccentricity": 6.33e-05,
      "inclination_deg": 53.1578,
      "raan_deg": 233.7382,
      "arg_perigee_deg": 74.6768,
      "mean_anomaly_deg": 285.4303,
      "mean_motion_rev_day": 15.30210835
    },
    {
      "epoch": "2026-04-05T16:12:01.925856Z",
      "apogee_km": 475.71466223593507,
      "perigee_km": 474.6688442681898,
      "latitude_deg": -4.237237104088493e-06,
      "longitude_deg": 156.44844709961995,
      "height_km": 475.9779120276245,
      "semi_major_axis_km": 6853.328753252063,
      "eccentricity": 7.63e-05,
      "inclination_deg": 53.1574,
      "raan_deg": 233.4337,
      "arg_perigee_deg": 77.5937,
      "mean_anomaly_deg": 282.5149,
      "mean_motion_rev_day": 15.30207809
    },
    {
      "epoch": "2026-04-06T01:36:20.935872Z",
      "apogee_km": 475.8193941145946,
      "perigee_km": 474.52315938713036,
      "latitude_deg": 3.834867274804065e-05,
      "longitude_deg": 13.163908534579239,
      "height_km": 475.96142054699203,
      "semi_major_axis_km": 6853.308276750862,
      "eccentricity": 9.457e-05,
      "inclination_deg": 53.1582,
      "raan_deg": 231.6146,
      "arg_perigee_deg": 80.3902,
      "mean_anomaly_deg": 279.7206,
      "mean_motion_rev_day": 15.30214667
    },
    {
      "epoch": "2026-04-07T12:05:31.534944Z",
      "apogee_km": 476.1777744968758,
      "perigee_km": 474.2958380496739,
      "latitude_deg": 4.7929335793786136e-05,
      "longitude_deg": -152.2207520112543,
      "height_km": 475.2306203517836,
      "semi_major_axis_km": 6853.373806273275,
      "eccentricity": 0.0001373,
      "inclination_deg": 53.1582,
      "raan_deg": 224.9404,
      "arg_perigee_deg": 15.8377,
      "mean_anomaly_deg": 344.2667,
      "mean_motion_rev_day": 15.3019272
    },
    {
      "epoch": "2026-04-08T14:44:25.804320Z",
      "apogee_km": 476.0831961189524,
      "perigee_km": 474.4189193630109,
      "latitude_deg": -4.513744775914438e-06,
      "longitude_deg": 161.80187192771376,
      "height_km": 475.9576826380268,
      "semi_major_axis_km": 6853.388057740982,
      "eccentricity": 0.00012142,
      "inclination_deg": 53.159,
      "raan_deg": 219.7836,
      "arg_perigee_deg": 76.6979,
      "mean_anomaly_deg": 283.4157,
      "mean_motion_rev_day": 15.30187947
    },
    {
      "epoch": "2026-04-09T14:15:13.544064Z",
      "apogee_km": 475.8495383297104,
      "perigee_km": 474.61730232813443,
      "latitude_deg": 2.301319905873764e-05,
      "longitude_deg": 163.58801859995552,
      "height_km": 476.1446790090463,
      "semi_major_axis_km": 6853.370420328922,
      "eccentricity": 8.99e-05,
      "inclination_deg": 53.1598,
      "raan_deg": 215.2343,
      "arg_perigee_deg": 91.1822,
      "mean_anomaly_deg": 268.9282,
      "mean_motion_rev_day": 15.30193854
    },
    {
      "epoch": "2026-04-10T10:37:55.206048Z",
      "apogee_km": 475.97133208125615,
      "perigee_km": 474.4128850419702,
      "latitude_deg": -4.15038450513606e-05,
      "longitude_deg": -146.87122786236168,
      "height_km": 476.02384936116954,
      "semi_major_axis_km": 6853.329108561613,
      "eccentricity": 0.0001137,
      "inclination_deg": 53.1595,
      "raan_deg": 211.2856,
      "arg_perigee_deg": 85.106,
      "mean_anomaly_deg": 275.007,
      "mean_motion_rev_day": 15.3020769
    },
    {
      "epoch": "2026-04-11T13:16:49.834848Z",
      "apogee_km": 476.55750335905304,
      "perigee_km": 473.8613968655782,
      "latitude_deg": -9.412722127375018e-06,
      "longitude_deg": 167.1512585221531,
      "height_km": 476.112478604956,
      "semi_major_axis_km": 6853.346450112315,
      "eccentricity": 0.0001967,
      "inclination_deg": 53.1596,
      "raan_deg": 206.1301,
      "arg_perigee_deg": 90.2543,
      "mean_anomaly_deg": 269.8683,
      "mean_motion_rev_day": 15.30201882
    }
  ]
}